[{"OBJECT_NAME":"STARLINK-3957","OBJECT_ID":"2022-051AF","EPOCH":"2026-03-09T09:01:37.949088","MEAN_MOTION":15.08829814,"ECCENTRICITY":0.00012835,"INCLINATION":53.2167,"RA_OF_ASC_NODE":120.527,"ARG_OF_PERICENTER":82.2359,"MEAN_ANOMALY":277.8779,"EPHEMERIS_TYPE":0,"CLASSIFICATION_TYPE":"U","NORAD_CAT_ID":52562,"ELEMENT_SET_NO":999,"REV_AT_EPOCH":21153,"BSTAR":-9.6119038e-5,"MEAN_MOTION_DOT":-1.817e-5,"MEAN_MOTION_DDOT":0},{"OBJECT_NAME":"ST5-C","OBJECT_ID":"2006-008C","EPOCH":"2026-03-09T21:55:58.762848","MEAN_MOTION":14.1017189,"ECCENTRICITY":0.08295695,"INCLINATION":105.4657,"RA_OF_ASC_NODE":199.8685,"ARG_OF_PERICENTER":126.1146,"MEAN_ANOMALY":241.9722,"EPHEMERIS_TYPE":0,"CLASSIFICATION_TYPE":"U","NORAD_CAT_ID":28982,"ELEMENT_SET_NO":999,"REV_AT_EPOCH":54192,"BSTAR":0.0012623918,"MEAN_MOTION_DOT":0.0010872,"MEAN_MOTION_DDOT":6.160981e-6}]
